[{"OBJECT_NAME":"MEXSAT 3","OBJECT_ID":"2012-075B","EPOCH":"2026-04-25T21:37:10.225920","MEAN_MOTION":1.00268611,"ECCENTRICITY":0.00019725,"INCLINATION":0.0034,"RA_OF_ASC_NODE":132.3067,"ARG_OF_PERICENTER":281.655,"MEAN_ANOMALY":9.4588,"EPHEMERIS_TYPE":0,"CLASSIFICATION_TYPE":"U","NORAD_CAT_ID":39035,"ELEMENT_SET_NO":999,"REV_AT_EPOCH":652,"BSTAR":0,"MEAN_MOTION_DOT":-3.9e-7,"MEAN_MOTION_DDOT":0},{"OBJECT_NAME":"TDRS 11","OBJECT_ID":"2013-004A","EPOCH":"2026-04-25T22:00:44.487648","MEAN_MOTION":1.00264257,"ECCENTRICITY":0.00054236,"INCLINATION":3.4447,"RA_OF_ASC_NODE":30.3405,"ARG_OF_PERICENTER":0.8571,"MEAN_ANOMALY":338.772,"EPHEMERIS_TYPE":0,"CLASSIFICATION_TYPE":"U","NORAD_CAT_ID":39070,"ELEMENT_SET_NO":999,"REV_AT_EPOCH":4616,"BSTAR":0,"MEAN_MOTION_DOT":6.8e-7,"MEAN_MOTION_DDOT":0},{"OBJECT_NAME":"AMAZONAS 3","OBJECT_ID":"2013-006A","EPOCH":"2026-04-25T20:57:38.714400","MEAN_MOTION":1.00271122,"ECCENTRICITY":0.00014656,"INCLINATION":0.0209,"RA_OF_ASC_NODE":171.1009,"ARG_OF_PERICENTER":206.5921,"MEAN_ANOMALY":89.6126,"EPHEMERIS_TYPE":0,"CLASSIFICATION_TYPE":"U","NORAD_CAT_ID":39078,"ELEMENT_SET_NO":999,"REV_AT_EPOCH":4439,"BSTAR":0,"MEAN_MOTION_DOT":-2.96e-6,"MEAN_MOTION_DDOT":0},{"OBJECT_NAME":"AZERSPACE 1","OBJECT_ID":"2013-006B","EPOCH":"2026-04-25T22:51:38.515968","MEAN_MOTION":1.00270826,"ECCENTRICITY":0.00019325,"INCLINATION":0.0171,"RA_OF_ASC_NODE":104.0796,"ARG_OF_PERICENTER":332.2211,"MEAN_ANOMALY":166.5564,"EPHEMERIS_TYPE":0,"CLASSIFICATION_TYPE":"U","NORAD_CAT_ID":39079,"ELEMENT_SET_NO":999,"REV_AT_EPOCH":4828,"BSTAR":0,"MEAN_MOTION_DOT":0,"MEAN_MOTION_DDOT":0},{"OBJECT_NAME":"SBIRS GEO-2 (USA 241)","OBJECT_ID":"2013-011A","EPOCH":"2026-04-25T16:47:35.799360","MEAN_MOTION":1.00271371,"ECCENTRICITY":0.00022422,"INCLINATION":4.3769,"RA_OF_ASC_NODE":52.4467,"ARG_OF_PERICENTER":338.3694,"MEAN_ANOMALY":24.9983,"EPHEMERIS_TYPE":0,"CLASSIFICATION_TYPE":"U","NORAD_CAT_ID":39120,"ELEMENT_SET_NO":999,"REV_AT_EPOCH":4801,"BSTAR":0,"MEAN_MOTION_DOT":-2.97e-6,"MEAN_MOTION_DDOT":0},{"OBJECT_NAME":"EUTELSAT 117 WEST A","OBJECT_ID":"2013-012A","EPOCH":"2026-04-25T21:36:40.272768","MEAN_MOTION":1.00270393,"ECCENTRICITY":0.00025615,"INCLINATION":0.0194,"RA_OF_ASC_NODE":305.8013,"ARG_OF_PERICENTER":74.4515,"MEAN_ANOMALY":41.0286,"EPHEMERIS_TYPE":0,"CLASSIFICATION_TYPE":"U","NORAD_CAT_ID":39122,"ELEMENT_SET_NO":999,"REV_AT_EPOCH":4790,"BSTAR":0,"MEAN_MOTION_DOT":-2.6e-7,"MEAN_MOTION_DDOT":0},{"OBJECT_NAME":"ANIK G1","OBJECT_ID":"2013-014A","EPOCH":"2026-04-25T21:39:25.009920","MEAN_MOTION":1.00269303,"ECCENTRICITY":0.00021897,"INCLINATION":0.0232,"RA_OF_ASC_NODE":107.2533,"ARG_OF_PERICENTER":268.6937,"MEAN_ANOMALY":55.5217,"EPHEMERIS_TYPE":0,"CLASSIFICATION_TYPE":"U","NORAD_CAT_ID":39127,"ELEMENT_SET_NO":999,"REV_AT_EPOCH":4772,"BSTAR":0,"MEAN_MOTION_DOT":0,"MEAN_MOTION_DDOT":0},{"OBJECT_NAME":"ZHONGXING-11","OBJECT_ID":"2013-020A","EPOCH":"2026-04-24T17:32:26.349792","MEAN_MOTION":1.00274217,"ECCENTRICITY":0.0001494,"INCLINATION":0.0222,"RA_OF_ASC_NODE":295.6622,"ARG_OF_PERICENTER":102.4154,"MEAN_ANOMALY":175.6572,"EPHEMERIS_TYPE":0,"CLASSIFICATION_TYPE":"U","NORAD_CAT_ID":39157,"ELEMENT_SET_NO":999,"REV_AT_EPOCH":4736,"BSTAR":0,"MEAN_MOTION_DOT":-3.05e-6,"MEAN_MOTION_DDOT":0},{"OBJECT_NAME":"EUTELSAT 7B","OBJECT_ID":"2013-022A","EPOCH":"2026-04-25T22:11:59.384832","MEAN_MOTION":1.00271213,"ECCENTRICITY":0.00059052,"INCLINATION":0.0752,"RA_OF_ASC_NODE":19.9765,"ARG_OF_PERICENTER":357.5106,"MEAN_ANOMALY":176.4297,"EPHEMERIS_TYPE":0,"CLASSIFICATION_TYPE":"U","NORAD_CAT_ID":39163,"ELEMENT_SET_NO":999,"REV_AT_EPOCH":4742,"BSTAR":0,"MEAN_MOTION_DOT":3.4e-7,"MEAN_MOTION_DDOT":0},{"OBJECT_NAME":"WGS F5 (USA 243)","OBJECT_ID":"2013-024A","EPOCH":"2026-04-25T21:55:01.013952","MEAN_MOTION":1.00271709,"ECCENTRICITY":3.743e-5,"INCLINATION":0.0118,"RA_OF_ASC_NODE":240.2311,"ARG_OF_PERICENTER":77.7192,"MEAN_ANOMALY":172.2283,"EPHEMERIS_TYPE":0,"CLASSIFICATION_TYPE":"U","NORAD_CAT_ID":39168,"ELEMENT_SET_NO":999,"REV_AT_EPOCH":4665,"BSTAR":0,"MEAN_MOTION_DOT":-2.98e-6,"MEAN_MOTION_DDOT":0},{"OBJECT_NAME":"DELTA 4 R/B","OBJECT_ID":"2013-024B","EPOCH":"2026-04-25T03:24:54.869472","MEAN_MOTION":1.10025513,"ECCENTRICITY":0.82461622,"INCLINATION":24.9438,"RA_OF_ASC_NODE":46.057,"ARG_OF_PERICENTER":355.5078,"MEAN_ANOMALY":0.0828,"EPHEMERIS_TYPE":0,"CLASSIFICATION_TYPE":"U","NORAD_CAT_ID":39169,"ELEMENT_SET_NO":999,"REV_AT_EPOCH":5186,"BSTAR":0.0014628211,"MEAN_MOTION_DOT":-4.63e-6,"MEAN_MOTION_DDOT":0},{"OBJECT_NAME":"SES-6","OBJECT_ID":"2013-026A","EPOCH":"2026-04-25T21:58:23.189952","MEAN_MOTION":1.0027121,"ECCENTRICITY":0.00023812,"INCLINATION":0.0245,"RA_OF_ASC_NODE":342.6069,"ARG_OF_PERICENTER":55.9604,"MEAN_ANOMALY":104.4479,"EPHEMERIS_TYPE":0,"CLASSIFICATION_TYPE":"U","NORAD_CAT_ID":39172,"ELEMENT_SET_NO":999,"REV_AT_EPOCH":4720,"BSTAR":0,"MEAN_MOTION_DOT":-2.75e-6,"MEAN_MOTION_DDOT":0},{"OBJECT_NAME":"BREEZE-M R/B","OBJECT_ID":"2013-026B","EPOCH":"2026-04-25T02:11:15.909504","MEAN_MOTION":1.105141,"ECCENTRICITY":0.76614422,"INCLINATION":28.7588,"RA_OF_ASC_NODE":311.8139,"ARG_OF_PERICENTER":187.0315,"MEAN_ANOMALY":146.3113,"EPHEMERIS_TYPE":0,"CLASSIFICATION_TYPE":"U","NORAD_CAT_ID":39173,"ELEMENT_SET_NO":999,"REV_AT_EPOCH":5166,"BSTAR":0,"MEAN_MOTION_DOT":-8.5e-7,"MEAN_MOTION_DDOT":0},{"OBJECT_NAME":"IRNSS-1A","OBJECT_ID":"2013-034A","EPOCH":"2026-04-25T22:25:35.580576","MEAN_MOTION":1.00272234,"ECCENTRICITY":0.00170372,"INCLINATION":35.61,"RA_OF_ASC_NODE":64.6165,"ARG_OF_PERICENTER":187.4243,"MEAN_ANOMALY":353.2554,"EPHEMERIS_TYPE":0,"CLASSIFICATION_TYPE":"U","NORAD_CAT_ID":39199,"ELEMENT_SET_NO":999,"REV_AT_EPOCH":4684,"BSTAR":0,"MEAN_MOTION_DOT":7.5e-7,"MEAN_MOTION_DDOT":0},{"OBJECT_NAME":"MUOS-2","OBJECT_ID":"2013-036A","EPOCH":"2026-04-25T18:13:38.476704","MEAN_MOTION":1.0027078,"ECCENTRICITY":0.00505253,"INCLINATION":4.8919,"RA_OF_ASC_NODE":45.4347,"ARG_OF_PERICENTER":180.6758,"MEAN_ANOMALY":73.0089,"EPHEMERIS_TYPE":0,"CLASSIFICATION_TYPE":"U","NORAD_CAT_ID":39206,"ELEMENT_SET_NO":999,"REV_AT_EPOCH":4666,"BSTAR":0,"MEAN_MOTION_DOT":-2.4e-7,"MEAN_MOTION_DDOT":0},{"OBJECT_NAME":"ALPHASAT","OBJECT_ID":"2013-038A","EPOCH":"2026-04-25T23:09:33.136704","MEAN_MOTION":1.00271973,"ECCENTRICITY":0.00021869,"INCLINATION":2.9923,"RA_OF_ASC_NODE":1.8173,"ARG_OF_PERICENTER":60.915,"MEAN_ANOMALY":163.501,"EPHEMERIS_TYPE":0,"CLASSIFICATION_TYPE":"U","NORAD_CAT_ID":39215,"ELEMENT_SET_NO":999,"REV_AT_EPOCH":4349,"BSTAR":0,"MEAN_MOTION_DOT":1.21e-6,"MEAN_MOTION_DDOT":0},{"OBJECT_NAME":"INSAT-3D","OBJECT_ID":"2013-038B","EPOCH":"2026-04-25T22:46:56.034624","MEAN_MOTION":1.00272261,"ECCENTRICITY":0.00014924,"INCLINATION":1.7929,"RA_OF_ASC_NODE":83.1635,"ARG_OF_PERICENTER":279.992,"MEAN_ANOMALY":322.0597,"EPHEMERIS_TYPE":0,"CLASSIFICATION_TYPE":"U","NORAD_CAT_ID":39216,"ELEMENT_SET_NO":999,"REV_AT_EPOCH":4655,"BSTAR":0,"MEAN_MOTION_DOT":-3.51e-6,"MEAN_MOTION_DDOT":0},{"OBJECT_NAME":"WGS F6 (USA 244)","OBJECT_ID":"2013-041A","EPOCH":"2026-04-25T16:30:38.735712","MEAN_MOTION":1.0026975,"ECCENTRICITY":8.52e-6,"INCLINATION":0.0114,"RA_OF_ASC_NODE":235.5431,"ARG_OF_PERICENTER":123.2864,"MEAN_ANOMALY":327.3407,"EPHEMERIS_TYPE":0,"CLASSIFICATION_TYPE":"U","NORAD_CAT_ID":39222,"ELEMENT_SET_NO":999,"REV_AT_EPOCH":4553,"BSTAR":0,"MEAN_MOTION_DOT":0,"MEAN_MOTION_DDOT":0},{"OBJECT_NAME":"ES'HAIL 1","OBJECT_ID":"2013-044A","EPOCH":"2026-04-25T23:09:51.106176","MEAN_MOTION":1.00270595,"ECCENTRICITY":0.00023261,"INCLINATION":0.0564,"RA_OF_ASC_NODE":16.4028,"ARG_OF_PERICENTER":16.25,"MEAN_ANOMALY":194.254,"EPHEMERIS_TYPE":0,"CLASSIFICATION_TYPE":"U","NORAD_CAT_ID":39233,"ELEMENT_SET_NO":999,"REV_AT_EPOCH":4610,"BSTAR":0,"MEAN_MOTION_DOT":1.3e-6,"MEAN_MOTION_DDOT":0},{"OBJECT_NAME":"GSAT-7","OBJECT_ID":"2013-044B","EPOCH":"2026-04-25T23:31:43.073760","MEAN_MOTION":1.00271642,"ECCENTRICITY":0.00046529,"INCLINATION":0.0879,"RA_OF_ASC_NODE":86.267,"ARG_OF_PERICENTER":215.0064,"MEAN_ANOMALY":339.6234,"EPHEMERIS_TYPE":0,"CLASSIFICATION_TYPE":"U","NORAD_CAT_ID":39234,"ELEMENT_SET_NO":999,"REV_AT_EPOCH":4473,"BSTAR":0,"MEAN_MOTION_DOT":-9.0e-7,"MEAN_MOTION_DDOT":0},{"OBJECT_NAME":"AMOS-4","OBJECT_ID":"2013-045A","EPOCH":"2026-04-25T23:31:58.479744","MEAN_MOTION":1.00271418,"ECCENTRICITY":0.0003216,"INCLINATION":0.0157,"RA_OF_ASC_NODE":238.3303,"ARG_OF_PERICENTER":144.847,"MEAN_ANOMALY":248.8099,"EPHEMERIS_TYPE":0,"CLASSIFICATION_TYPE":"U","NORAD_CAT_ID":39237,"ELEMENT_SET_NO":999,"REV_AT_EPOCH":4643,"BSTAR":0,"MEAN_MOTION_DOT":-6.0e-8,"MEAN_MOTION_DDOT":0},{"OBJECT_NAME":"SL-23 R/B","OBJECT_ID":"2013-045B","EPOCH":"2026-04-25T03:34:26.649120","MEAN_MOTION":2.10657852,"ECCENTRICITY":0.63790948,"INCLINATION":26.3268,"RA_OF_ASC_NODE":89.4931,"ARG_OF_PERICENTER":91.8237,"MEAN_ANOMALY":337.047,"EPHEMERIS_TYPE":0,"CLASSIFICATION_TYPE":"U","NORAD_CAT_ID":39238,"ELEMENT_SET_NO":999,"REV_AT_EPOCH":9734,"BSTAR":0,"MEAN_MOTION_DOT":1.7e-7,"MEAN_MOTION_DDOT":0},{"OBJECT_NAME":"AEHF-3 (USA 246)","OBJECT_ID":"2013-050A","EPOCH":"2026-04-25T21:34:40.465344","MEAN_MOTION":1.00268362,"ECCENTRICITY":0.00885685,"INCLINATION":5.1652,"RA_OF_ASC_NODE":67.654,"ARG_OF_PERICENTER":188.4073,"MEAN_ANOMALY":157.3175,"EPHEMERIS_TYPE":0,"CLASSIFICATION_TYPE":"U","NORAD_CAT_ID":39256,"ELEMENT_SET_NO":999,"REV_AT_EPOCH":4512,"BSTAR":0,"MEAN_MOTION_DOT":2.0e-7,"MEAN_MOTION_DDOT":0},{"OBJECT_NAME":"ASTRA 2E","OBJECT_ID":"2013-056A","EPOCH":"2026-04-25T22:43:26.809248","MEAN_MOTION":1.0027218,"ECCENTRICITY":0.00023176,"INCLINATION":0.0617,"RA_OF_ASC_NODE":5.8531,"ARG_OF_PERICENTER":29.7148,"MEAN_ANOMALY":187.7669,"EPHEMERIS_TYPE":0,"CLASSIFICATION_TYPE":"U","NORAD_CAT_ID":39285,"ELEMENT_SET_NO":999,"REV_AT_EPOCH":4589,"BSTAR":0,"MEAN_MOTION_DOT":1.37e-6,"MEAN_MOTION_DDOT":0}]
